{
  "type": "FeatureCollection",
  "features": [
    {
      "type": "Feature",
      "properties": {
        "norad_id": 32128,
        "name": "FENGYUN 1C DEB",
        "group": "fengyun-1c-debris",
        "lat": 61.15132598433585,
        "lon": -126.09329301938651,
        "alt_km": 915.4110726107165,
        "timestamp": "2025-12-16T23:36:36.482001+00:00",
        "meta_object_name": "FENGYUN 1C DEB",
        "meta_object_id": "1999-025CRW",
        "meta_epoch": "2025-12-14T21:03:58.317984",
        "meta_mean_motion": 13.94226768,
        "meta_eccentricity": 0.0397234,
        "meta_inclination": 99.0319,
        "meta_ra_of_asc_node": 35.0592,
        "meta_arg_of_pericenter": 217.0063,
        "meta_mean_anomaly": 140.309,
        "meta_ephemeris_type": 0,
        "meta_classification_type": "U",
        "meta_norad_cat_id": 32128,
        "meta_element_set_no": 999,
        "meta_rev_at_epoch": 63015,
        "meta_bstar": 0.00040307328,
        "meta_mean_motion_dot": 9.82e-06,
        "meta_mean_motion_ddot": 0,
        "tle_line1": "1 32128U 99025CRW 25348.87775831  .00000982  00000+0  40307-3 0  9994",
        "tle_line2": "2 32128  99.0319  35.0592 0397234 217.0063 140.3090 13.94226768630150"
      },
      "geometry": {
        "type": "Point",
        "coordinates": [
          -126.09329301938651,
          61.15132598433585
        ]
      }
    },
    {
      "type": "Feature",
      "properties": {
        "norad_id": 32129,
        "name": "FENGYUN 1C DEB",
        "group": "fengyun-1c-debris",
        "lat": 1.533972635203495,
        "lon": -70.210238911141,
        "alt_km": 843.9375057259567,
        "timestamp": "2025-12-16T23:36:36.482012+00:00",
        "meta_object_name": "FENGYUN 1C DEB",
        "meta_object_id": "1999-025CRX",
        "meta_epoch": "2025-12-15T06:35:06.946944",
        "meta_mean_motion": 14.28524934,
        "meta_eccentricity": 0.00675694,
        "meta_inclination": 99.0595,
        "meta_ra_of_asc_node": 107.7711,
        "meta_arg_of_pericenter": 26.1912,
        "meta_mean_anomaly": 5.9768,
        "meta_ephemeris_type": 0,
        "meta_classification_type": "U",
        "meta_norad_cat_id": 32129,
        "meta_element_set_no": 999,
        "meta_rev_at_epoch": 94263,
        "meta_bstar": 0.0015513104,
        "meta_mean_motion_dot": 3.939e-05,
        "meta_mean_motion_ddot": 0,
        "tle_line1": "1 32129U 99025CRX 25349.27438596  .00003939  00000+0  15513-2 0  9999",
        "tle_line2": "2 32129  99.0595 107.7711 0067569  26.1912   5.9768 14.28524934942635"
      },
      "geometry": {
        "type": "Point",
        "coordinates": [
          -70.210238911141,
          1.533972635203495
        ]
      }
    },
    {
      "type": "Feature",
      "properties": {
        "norad_id": 32130,
        "name": "FENGYUN 1C DEB",
        "group": "fengyun-1c-debris",
        "lat": -1.358120177810645,
        "lon": -22.568763766343984,
        "alt_km": 812.1468557487979,
        "timestamp": "2025-12-16T23:36:36.482024+00:00",
        "meta_object_name": "FENGYUN 1C DEB",
        "meta_object_id": "1999-025CRY",
        "meta_epoch": "2025-12-12T06:50:38.827104",
        "meta_mean_motion": 14.37545048,
        "meta_eccentricity": 0.00825122,
        "meta_inclination": 98.9038,
        "meta_ra_of_asc_node": 152.7804,
        "meta_arg_of_pericenter": 331.5241,
        "meta_mean_anomaly": 28.1449,
        "meta_ephemeris_type": 0,
        "meta_classification_type": "U",
        "meta_norad_cat_id": 32130,
        "meta_element_set_no": 999,
        "meta_rev_at_epoch": 96228,
        "meta_bstar": 0.00063289751,
        "meta_mean_motion_dot": 1.924e-05,
        "meta_mean_motion_ddot": 0,
        "tle_line1": "1 32130U 99025CRY 25346.28517161  .00001924  00000+0  63290-3 0  9993",
        "tle_line2": "2 32130  98.9038 152.7804 0082512 331.5241  28.1449 14.37545048962288"
      },
      "geometry": {
        "type": "Point",
        "coordinates": [
          -22.568763766343984,
          -1.358120177810645
        ]
      }
    },
    {
      "type": "Feature",
      "properties": {
        "norad_id": 32133,
        "name": "FENGYUN 1C DEB",
        "group": "fengyun-1c-debris",
        "lat": -76.3829039691618,
        "lon": 134.22155222351878,
        "alt_km": 865.097397793762,
        "timestamp": "2025-12-16T23:36:36.482034+00:00",
        "meta_object_name": "FENGYUN 1C DEB",
        "meta_object_id": "1999-025CSB",
        "meta_epoch": "2025-12-14T11:07:28.655904",
        "meta_mean_motion": 14.18073011,
        "meta_eccentricity": 0.0036436,
        "meta_inclination": 98.4317,
        "meta_ra_of_asc_node": 349.5844,
        "meta_arg_of_pericenter": 96.0105,
        "meta_mean_anomaly": 264.5225,
        "meta_ephemeris_type": 0,
        "meta_classification_type": "U",
        "meta_norad_cat_id": 32133,
        "meta_element_set_no": 999,
        "meta_rev_at_epoch": 94999,
        "meta_bstar": 0.00024822203,
        "meta_mean_motion_dot": 4.72e-06,
        "meta_mean_motion_ddot": 0,
        "tle_line1": "1 32133U 99025CSB 25348.46352611  .00000472  00000+0  24822-3 0  9990",
        "tle_line2": "2 32133  98.4317 349.5844 0036436  96.0105 264.5225 14.18073011949998"
      },
      "geometry": {
        "type": "Point",
        "coordinates": [
          134.22155222351878,
          -76.3829039691618
        ]
      }
    },
    {
      "type": "Feature",
      "properties": {
        "norad_id": 32134,
        "name": "FENGYUN 1C DEB",
        "group": "fengyun-1c-debris",
        "lat": 18.963737579765258,
        "lon": 177.05116214665208,
        "alt_km": 817.2016037648609,
        "timestamp": "2025-12-16T23:36:36.482045+00:00",
        "meta_object_name": "FENGYUN 1C DEB",
        "meta_object_id": "1999-025CSC",
        "meta_epoch": "2025-12-15T18:57:53.182368",
        "meta_mean_motion": 14.21568147,
        "meta_eccentricity": 0.02590274,
        "meta_inclination": 98.5943,
        "meta_ra_of_asc_node": 352.9088,
        "meta_arg_of_pericenter": 254.725,
        "meta_mean_anomaly": 284.2044,
        "meta_ephemeris_type": 0,
        "meta_classification_type": "U",
        "meta_norad_cat_id": 32134,
        "meta_element_set_no": 999,
        "meta_rev_at_epoch": 95190,
        "meta_bstar": 0.00041513634,
        "meta_mean_motion_dot": 1.228e-05,
        "meta_mean_motion_ddot": 0,
        "tle_line1": "1 32134U 99025CSC 25349.79019887  .00001228  00000+0  41514-3 0  9990",
        "tle_line2": "2 32134  98.5943 352.9088 0259027 254.7250 284.2044 14.21568147951905"
      },
      "geometry": {
        "type": "Point",
        "coordinates": [
          177.05116214665208,
          18.963737579765258
        ]
      }
    },
    {
      "type": "Feature",
      "properties": {
        "norad_id": 32137,
        "name": "FENGYUN 1C DEB",
        "group": "fengyun-1c-debris",
        "lat": 45.361030292295695,
        "lon": -52.896280241970544,
        "alt_km": 671.2662724674146,
        "timestamp": "2025-12-16T23:36:36.482055+00:00",
        "meta_object_name": "FENGYUN 1C DEB",
        "meta_object_id": "1999-025CSF",
        "meta_epoch": "2025-12-12T03:55:05.430720",
        "meta_mean_motion": 14.81229537,
        "meta_eccentricity": 0.01876242,
        "meta_inclination": 98.4418,
        "meta_ra_of_asc_node": 113.3755,
        "meta_arg_of_pericenter": 35.9319,
        "meta_mean_anomaly": 325.4341,
        "meta_ephemeris_type": 0,
        "meta_classification_type": "U",
        "meta_norad_cat_id": 32137,
        "meta_element_set_no": 999,
        "meta_rev_at_epoch": 66722,
        "meta_bstar": 0.0012143683,
        "meta_mean_motion_dot": 0.00012783,
        "meta_mean_motion_ddot": 0,
        "tle_line1": "1 32137U 99025CSF 25346.16325730  .00012783  00000+0  12144-2 0  9992",
        "tle_line2": "2 32137  98.4418 113.3755 0187624  35.9319 325.4341 14.81229537667222"
      },
      "geometry": {
        "type": "Point",
        "coordinates": [
          -52.896280241970544,
          45.361030292295695
        ]
      }
    },
    {
      "type": "Feature",
      "properties": {
        "norad_id": 32141,
        "name": "FENGYUN 1C DEB",
        "group": "fengyun-1c-debris",
        "lat": 8.015130584077408,
        "lon": -8.023518533054435,
        "alt_km": 935.8831009922596,
        "timestamp": "2025-12-16T23:36:36.482067+00:00",
        "meta_object_name": "FENGYUN 1C DEB",
        "meta_object_id": "1999-025CSK",
        "meta_epoch": "2025-11-20T23:04:46.058016",
        "meta_mean_motion": 14.03501767,
        "meta_eccentricity": 0.00731678,
        "meta_inclination": 98.7436,
        "meta_ra_of_asc_node": 328.1999,
        "meta_arg_of_pericenter": 269.2169,
        "meta_mean_anomaly": 90.0615,
        "meta_ephemeris_type": 0,
        "meta_classification_type": "U",
        "meta_norad_cat_id": 32141,
        "meta_element_set_no": 999,
        "meta_rev_at_epoch": 94638,
        "meta_bstar": 0.00056632309,
        "meta_mean_motion_dot": 8.66e-06,
        "meta_mean_motion_ddot": 0,
        "tle_line1": "1 32141U 99025CSK 25324.96164419  .00000866  00000+0  56632-3 0  9996",
        "tle_line2": "2 32141  98.7436 328.1999 0073167 269.2169  90.0615 14.03501767946385"
      },
      "geometry": {
        "type": "Point",
        "coordinates": [
          -8.023518533054435,
          8.015130584077408
        ]
      }
    }
  ]
}